NORAD_CAT_ID,OBJECT_NAME,OBJECT_TYPE,EPOCH,MEAN_MOTION,ECCENTRICITY,INCLINATION,RA_OF_ASC_NODE,ARG_OF_PERICENTER,MEAN_ANOMALY,BSTAR,MEAN_MOTION_DOT,MEAN_MOTION_DDOT,TLE_LINE0,TLE_LINE1,TLE_LINE2,SEMIMAJOR_AXIS,PERIOD,APOGEE,PERIGEE,DECAYED
50165.0,STARLINK-3298,PAYLOAD,2024-05-04 04:02:06,15.08817724,0.0001273,53.2175,47.1663,79.1853,280.9282,-0.00013228,-2.391e-05,0.0,0 STARLINK-3298,1 50165U 21125K   24125.16813627 -.00002391  00000-0 -13228-3 0  9992,2 50165  53.2175  47.1663 0001273  79.1853 280.9282 15.08817724131543,6917.948,95.439,540.694,538.933,0.0
50165.0,STARLINK-3298,PAYLOAD,2024-05-04 11:59:02,15.08828108,0.0001204,53.2177,45.6809,82.4894,277.6235,-1.7077e-06,-3.15e-06,0.0,0 STARLINK-3298,1 50165U 21125K   24125.49933493 -.00000315  00000-0 -17077-5 0  9994,2 50165  53.2177  45.6809 0001204  82.4894 277.6235 15.08828108131590,6917.917,95.438,540.615,538.949,0.0
50165.0,STARLINK-3298,PAYLOAD,2024-05-05 03:52:54,15.08846268,0.0001212,53.2171,42.7064,78.5523,281.5605,0.0011281,0.00017714,0.0,0 STARLINK-3298,1 50165U 21125K   24126.16173750  .00017714  00000-0  11281-2 0  9998,2 50165  53.2171  42.7064 0001212  78.5523 281.5605 15.08846268131692,6917.861,95.437,540.565,538.888,0.0
50165.0,STARLINK-3298,PAYLOAD,2024-05-05 22:57:31,15.08868591,0.0001248,53.2175,39.1379,79.5117,280.6016,0.0010618,0.00016664,0.0,0 STARLINK-3298,1 50165U 21125K   24126.95660987  .00016664  00000-0  10618-2 0  9994,2 50165  53.2175  39.1379 0001248  79.5117 280.6016 15.08868591134944,6917.793,95.436,540.521,538.795,0.0
50165.0,STARLINK-3298,PAYLOAD,2024-05-06 11:40:35,15.08887288,0.000123,53.2174,36.7589,80.9164,279.1967,0.0012287,0.00019346,0.0,0 STARLINK-3298,1 50165U 21125K   24127.48651657  .00019346  00000-0  12287-2 0  9991,2 50165  53.2174  36.7589 0001230  80.9164 279.1967 15.08887288131891,6917.736,95.435,540.452,538.75,0.0
50165.0,STARLINK-3298,PAYLOAD,2024-05-06 21:12:53,15.08865567,0.0001412,53.2177,34.9738,102.5846,257.5305,0.00028937,4.324e-05,0.0,0 STARLINK-3298,1 50165U 21125K   24127.88395456  .00004324  00000-0  28937-3 0  9997,2 50165  53.2177  34.9738 0001412 102.5846 257.5305 15.08865567131959,6917.802,95.436,540.644,538.69,0.0
50165.0,STARLINK-3298,PAYLOAD,2024-05-06 22:48:16,15.08866475,0.000154,53.2177,34.6762,107.9635,252.1525,0.00033007,4.973e-05,0.0,0 STARLINK-3298,1 50165U 21125K   24127.95019359  .00004973  00000-0  33007-3 0  9994,2 50165  53.2177  34.6762 0001540 107.9635 252.1525 15.08866475135093,6917.799,95.436,540.73,538.599,0.0
50165.0,STARLINK-3298,PAYLOAD,2024-05-07 03:34:25,15.08871271,0.0001424,53.2185,33.7844,105.808,254.3069,0.00067308,0.00010449,0.0,0 STARLINK-3298,1 50165U 21125K   24128.14891090  .00010449  00000-0  67308-3 0  9992,2 50165  53.2185  33.7844 0001424 105.8080 254.3069 15.08871271135126,6917.785,95.436,540.635,538.665,0.0
50165.0,STARLINK-3298,PAYLOAD,2024-05-07 21:03:41,15.08823983,0.0001083,53.2186,30.5148,52.4352,307.6739,-0.00024635,-4.204e-05,0.0,0 STARLINK-3298,1 50165U 21125K   24128.87755861 -.00004204  00000-0 -24635-3 0  9997,2 50165  53.2186  30.5148 0001083  52.4352 307.6739 15.08823983132107,6917.929,95.439,540.544,539.045,0.0
50165.0,STARLINK-3298,PAYLOAD,2024-05-07 22:39:04,15.08824826,0.0001199,53.2178,30.2178,67.5037,292.6082,-0.00011581,-2.13e-05,0.0,0 STARLINK-3298,1 50165U 21125K   24128.94379923 -.00002130  00000-0 -11581-3 0  9998,2 50165  53.2178  30.2178 0001199  67.5037 292.6082 15.08824826135242,6917.927,95.439,540.621,538.962,0.0
50165.0,STARLINK-3298,PAYLOAD,2024-05-08 09:46:46,15.08835868,0.0001264,53.2191,28.1363,104.3588,255.7545,0.00073821,0.00011479,0.0,0 STARLINK-3298,1 50165U 21125K   24129.40748147  .00011479  00000-0  73821-3 0  9997,2 50165  53.2191  28.1363 0001264 104.3588 255.7545 15.08835868132185,6917.893,95.438,540.632,538.884,0.0
50165.0,STARLINK-3298,PAYLOAD,2024-05-08 22:29:51,15.08839595,0.0001281,53.2187,25.7631,106.4066,253.7067,0.00039646,6.027e-05,0.0,0 STARLINK-3298,1 50165U 21125K   24129.93740558  .00006027  00000-0  39646-3 0  9993,2 50165  53.2187  25.7631 0001281 106.4066 253.7067 15.08839595135398,6917.882,95.438,540.633,538.86,0.0
50165.0,STARLINK-3298,PAYLOAD,2024-05-09 00:05:15,15.08842664,0.0001276,53.2191,25.465,111.722,248.3908,0.00036391,5.509e-05,0.0,0 STARLINK-3298,1 50165U 21125K   24130.00364593  .00005509  00000-0  36391-3 0  9992,2 50165  53.2191  25.4650 0001276 111.7220 248.3908 15.08842664132275,6917.872,95.437,540.62,538.855,0.0
50165.0,STARLINK-3298,PAYLOAD,2024-05-09 09:37:33,15.08859691,0.0001417,53.219,23.6788,98.2776,261.8377,0.001174,0.00018456,0.0,0 STARLINK-3298,1 50165U 21125K   24130.40108212  .00018456  00000-0  11740-2 0  9995,2 50165  53.2190  23.6788 0001417  98.2776 261.8377 15.08859691132333,6917.82,95.436,540.665,538.705,0.0
50165.0,STARLINK-3298,PAYLOAD,2024-05-09 20:45:15,15.08847334,0.0001192,53.2179,21.5953,81.5604,278.5523,0.00066092,0.00010248,0.0,0 STARLINK-3298,1 50165U 21125K   24130.86476388  .00010248  00000-0  66092-3 0  9999,2 50165  53.2179  21.5953 0001192  81.5604 278.5523 15.08847334132403,6917.858,95.437,540.548,538.898,0.0
50165.0,STARLINK-3298,PAYLOAD,2024-05-09 22:20:38,15.08853798,0.0001184,53.2177,21.2978,81.5194,278.5932,0.0010163,0.00015929,0.0,0 STARLINK-3298,1 50165U 21125K   24130.93100326  .00015929  00000-0  10163-2 0  9991,2 50165  53.2177  21.2978 0001184  81.5194 278.5932 15.08853798135543,6917.838,95.437,540.522,538.884,0.0
50165.0,STARLINK-3298,PAYLOAD,2024-05-10 09:28:20,15.08861176,0.0001127,53.2172,19.2174,83.0978,277.0142,0.0016812,0.00026585,0.0,0 STARLINK-3298,1 50165U 21125K   24131.39468183  .00026585  00000-0  16812-2 0  9997,2 50165  53.2172  19.2174 0001127  83.0978 277.0142 15.08861176135611,6917.816,95.436,540.46,538.901,0.0
50165.0,STARLINK-3298,PAYLOAD,2024-05-10 20:36:02,15.08859707,0.0001192,53.2177,17.1354,97.2751,262.8376,0.0029026,0.00046235,0.0,0 STARLINK-3298,1 50165U 21125K   24131.85836556  .00046235  00000-0  29026-2 0  9996,2 50165  53.2177  17.1354 0001192  97.2751 262.8376 15.08859707132559,6917.82,95.436,540.51,538.861,0.0
50165.0,STARLINK-3298,PAYLOAD,2024-05-10 22:11:25,15.08862364,0.0001294,53.2175,16.837,92.9844,267.1296,0.0029514,0.00047026,0.0,0 STARLINK-3298,1 50165U 21125K   24131.92460464  .00047026  00000-0  29514-2 0  9996,2 50165  53.2175  16.8370 0001294  92.9844 267.1296 15.08862364135699,6917.812,95.436,540.572,538.782,0.0
50165.0,STARLINK-3298,PAYLOAD,2024-05-11 09:19:05,15.08962725,0.0001154,53.2174,14.7561,107.6778,252.434,0.0061149,0.00098728,0.0,0 STARLINK-3298,1 50165U 21125K   24132.38826027  .00098728  00000-0  61149-2 0  9993,2 50165  53.2174  14.7561 0001154 107.6778 252.4340 15.08962725132632,6917.505,95.43,540.169,538.572,0.0
50165.0,STARLINK-3298,PAYLOAD,2024-05-11 20:26:45,15.08878464,0.0001472,53.2166,12.6746,35.6479,324.4611,-0.0038322,-0.00060826,0.0,0 STARLINK-3298,1 50165U 21125K   24132.85191315 -.00060826  00000-0 -38322-2 0  9997,2 50165  53.2166  12.6746 0001472  35.6479 324.4611 15.08878464132701,6917.763,95.435,540.646,538.61,0.0
50165.0,STARLINK-3298,PAYLOAD,2024-05-11 22:02:08,15.0881446,0.0001801,53.2162,12.3776,82.4551,277.6646,5.244e-05,5.46e-06,0.0,0 STARLINK-3298,1 50165U 21125K   24132.91815348  .00000546  00000-0  52440-4 0  9993,2 50165  53.2162  12.3776 0001801  82.4551 277.6646 15.08814460135845,6917.958,95.439,541.069,538.578,0.0
50165.0,STARLINK-3298,PAYLOAD,2024-05-12 01:12:54,15.08843899,0.0001657,53.2169,11.7823,78.8518,281.266,-0.0041338,-0.00065487,0.0,0 STARLINK-3298,1 50165U 21125K   24133.05063616 -.00065487  00000-0 -41338-2 0  9991,2 50165  53.2169  11.7823 0001657  78.8518 281.2660 15.08843899132739,6917.868,95.437,540.88,538.587,0.0
50165.0,STARLINK-3298,PAYLOAD,2024-05-12 09:09:52,15.08783337,0.0001348,53.2166,10.2956,82.7771,277.3375,-0.0014757,-0.0002366,0.0,0 STARLINK-3298,1 50165U 21125K   24133.38185275 -.00023660  00000-0 -14757-2 0  9995,2 50165  53.2166  10.2956 0001348  82.7771 277.3375 15.08783337132783,6918.054,95.441,540.851,538.986,0.0
50165.0,STARLINK-3298,PAYLOAD,2024-05-12 21:52:59,15.08779247,0.0001698,53.2176,7.9158,89.8762,270.2425,0.0016127,0.00025429,0.0,0 STARLINK-3298,1 50165U 21125K   24133.91180382  .00025429  00000-0  16127-2 0  9994,2 50165  53.2176   7.9158 0001698  89.8762 270.2425 15.08779247135996,6918.066,95.441,541.106,538.756,0.0
50165.0,STARLINK-3298,PAYLOAD,2024-05-13 09:00:43,15.08788637,0.0001544,53.2177,5.8335,90.7433,269.3736,0.0011977,0.00018798,0.0,0 STARLINK-3298,1 50165U 21125K   24134.37550115  .00018798  00000-0  11977-2 0  9999,2 50165  53.2177   5.8335 0001544  90.7433 269.3736 15.08788637136063,6918.037,95.441,540.971,538.834,0.0
50165.0,STARLINK-3298,PAYLOAD,2024-05-13 21:43:48,15.08829223,0.0001306,53.2161,3.4556,87.5738,272.5403,0.0016102,0.00025424,0.0,0 STARLINK-3298,1 50165U 21125K   24134.90542724  .00025424  00000-0  16102-2 0  9994,2 50165  53.2161   3.4556 0001306  87.5738 272.5403 15.08829223136146,6917.913,95.438,540.682,538.875,0.0
50165.0,STARLINK-3298,PAYLOAD,2024-05-14 00:54:35,15.0883907,0.0001324,53.2164,2.8607,87.7627,272.3517,0.0017274,0.0002731,0.0,0 STARLINK-3298,1 50165U 21125K   24135.03790747  .00027310  00000-0  17274-2 0  9996,2 50165  53.2164   2.8607 0001324  87.7627 272.3517 15.08839070133038,6917.883,95.438,540.664,538.832,0.0
50165.0,STARLINK-3298,PAYLOAD,2024-05-14 21:34:35,15.08871479,0.0001214,53.2157,358.9954,73.3476,286.7649,0.001613,0.00025498,0.0,0 STARLINK-3298,1 50165U 21125K   24135.89902033  .00025498  00000-0  16130-2 0  9998,2 50165  53.2157 358.9954 0001214  73.3476 286.7649 15.08871479136296,6917.784,95.436,540.489,538.809,0.0
50165.0,STARLINK-3298,PAYLOAD,2024-05-15 15:03:49,15.0887115,0.0001427,53.2176,355.721,85.7051,274.4104,0.0014843,0.00023434,0.0,0 STARLINK-3298,1 50165U 21125K   24136.62765239  .00023434  00000-0  14843-2 0  9992,2 50165  53.2176 355.7210 0001427  85.7051 274.4104 15.08871150136408,6917.785,95.436,540.637,538.663,0.0
